      2.10          N: GNSS NAV DATA                        RINEX VERSION / TYPE
fic2rin                                 07/28/2018 00:07:15 PGM / RUN BY / DATE
                                                            END OF HEADER
31 18  7 27  4  0  0.0 1.049377024174e-04-2.614797267597e-12 0.000000000000e+00
    7.000000000000e+01-7.812500000000e+00 4.536260382024e-09-6.775671417911e-02
   -5.196779966354e-07 8.795855450444e-03 9.490177035332e-06 5.153703430176e+03
    4.464000000000e+05 1.080334186554e-07-5.853819324900e-01-4.842877388000e-08
    9.626890547433e-01 1.982812500000e+02-1.232570626543e-01-7.981046728346e-09
   -6.914573734036e-10 1.000000000000e+00 2.011000000000e+03 0.000000000000e+00
    2.400000000000e+00 0.000000000000e+00-1.350417733192e-08 7.000000000000e+01
    4.392060000000e+05 4.000000000000e+00
29 18  7 27  4  0  0.0 4.073684103787e-04-7.048583938740e-12 0.000000000000e+00
    5.200000000000e+01 1.075000000000e+01 4.156958868308e-09-2.592315003868e+00
    6.277114152908e-07 8.513140492141e-04 7.469207048416e-07 5.153657257080e+03
    4.464000000000e+05-5.029141902924e-08 1.539868180273e+00-6.332993507385e-08
    9.840355662197e-01 3.789062500000e+02 1.436421546094e+00-8.179983586293e-09
    8.928943354902e-12 1.000000000000e+00 2.011000000000e+03 0.000000000000e+00
    2.400000000000e+00 0.000000000000e+00-1.024454832077e-08 5.200000000000e+01
    4.392060000000e+05 4.000000000000e+00
18 18  7 27  4  0  0.0 3.847712650895e-05 4.547473508865e-12 0.000000000000e+00
    1.860000000000e+02-1.103750000000e+02 4.694838416008e-09 5.330470593210e-01
   -5.934387445450e-06 1.485009992030e-02 6.003305315971e-06 5.153641101837e+03
    4.464000000000e+05-2.160668373108e-07 2.482924671047e+00-6.705522537231e-08
    9.505441268240e-01 2.618750000000e+02 1.327403552257e+00-8.438208628117e-09
   -2.525105180766e-10 1.000000000000e+00 2.011000000000e+03 0.000000000000e+00
    3.400000000000e+00 0.000000000000e+00-6.519258022308e-09 1.860000000000e+02
    4.392060000000e+05 4.000000000000e+00
27 18  7 27  4  0  0.0 3.584041260183e-04-2.614797267597e-12 0.000000000000e+00
    1.020000000000e+02 3.159375000000e+01 4.235176412097e-09 2.956676038431e+00
    1.583248376846e-06 6.005452480167e-03 8.121132850647e-07 5.153688121796e+03
    4.464000000000e+05-4.656612873077e-08 1.474740195294e+00-1.117587089539e-08
    9.774250183153e-01 3.735000000000e+02 4.563768452646e-01-8.196412842066e-09
    1.107188976008e-10 1.000000000000e+00 2.011000000000e+03 0.000000000000e+00
    2.400000000000e+00 0.000000000000e+00 1.862645149231e-09 1.020000000000e+02
    4.392060000000e+05 4.000000000000e+00
20 18  7 27  4  0  0.0 5.131028592587e-04 6.821210263297e-13 0.000000000000e+00
    8.400000000000e+01-3.450000000000e+01 5.033781105760e-09 6.690308699697e-01
   -1.765787601471e-06 4.045244073495e-03 1.097470521927e-05 5.153675518036e+03
    4.464000000000e+05-3.539025783539e-08-2.820927051003e+00-2.980232238770e-08
    9.291064287378e-01 1.508437500000e+02 2.062175413769e+00-8.181055059495e-09
    5.578803808143e-10 1.000000000000e+00 2.011000000000e+03 0.000000000000e+00
    2.400000000000e+00 0.000000000000e+00-8.381903171539e-09 8.400000000000e+01
    4.392060000000e+05 4.000000000000e+00
18 18  7 27  3 59 44.0 3.847200423479e-05 4.547473508865e-12 0.000000000000e+00
    0.000000000000e+00-1.103750000000e+02 4.695195573742e-09 5.307129779143e-01
   -5.934387445450e-06 1.485010446049e-02 6.003305315971e-06 5.153641105652e+03
    4.463840000000e+05-2.160668373108e-07 2.482924807099e+00-6.705522537231e-08
    9.505441282869e-01 2.618750000000e+02 1.327403859470e+00-8.438208628117e-09
   -2.525105180766e-10 1.000000000000e+00 2.011000000000e+03 0.000000000000e+00
    2.400000000000e+00 0.000000000000e+00-6.519258022308e-09 0.000000000000e+00
    4.409160000000e+05 4.000000000000e+00
19 18  7 27  3 59 44.0-4.170099273324e-04 3.183231456205e-12 0.000000000000e+00
    9.000000000000e+00 2.562500000000e+00 4.226604626476e-09-5.244913087454e-01
    3.501772880554e-07 9.858198580332e-03 1.449137926102e-06 5.153716131210e+03
    4.463840000000e+05-2.235174179077e-08 1.576067374241e+00 1.378357410431e-07
    9.802927327385e-01 3.640312500000e+02 1.244461552385e+00-8.329632676921e-09
    1.092902666640e-10 1.000000000000e+00 2.011000000000e+03 0.000000000000e+00
    2.400000000000e+00 0.000000000000e+00-1.536682248116e-08 9.000000000000e+00
    4.414560000000e+05 4.000000000000e+00
20 18  7 27  3 59 44.0 5.131033249199e-04 6.821210263297e-13 0.000000000000e+00
    6.000000000000e+00-3.450000000000e+01 5.034138263494e-09 6.666976414443e-01
   -1.765787601471e-06 4.045244073495e-03 1.097470521927e-05 5.153675514221e+03
    4.463840000000e+05-3.539025783539e-08-2.820926919341e+00-2.980232238770e-08
    9.291064170345e-01 1.508437500000e+02 2.062174971968e+00-8.181055059495e-09
    5.578803808143e-10 1.000000000000e+00 2.011000000000e+03 0.000000000000e+00
    2.400000000000e+00 0.000000000000e+00-8.381903171539e-09 6.000000000000e+00
    4.422060000000e+05 4.000000000000e+00
23 18  7 27  3 59 44.0-2.138474956155e-04 5.684341886081e-13 0.000000000000e+00
    7.000000000000e+00 1.090625000000e+01 5.572374968927e-09 1.604278761930e+00
    5.587935447693e-07 1.264765544329e-02 5.075708031654e-06 5.153751459122e+03
    4.463840000000e+05-3.259629011154e-07-1.678124337186e+00 9.685754776001e-08
    9.430076556426e-01 2.780000000000e+02-2.339263299546e+00-8.551784787591e-09
    1.560779298437e-10 1.000000000000e+00 2.011000000000e+03 0.000000000000e+00
    2.400000000000e+00 0.000000000000e+00-2.002343535423e-08 7.000000000000e+00
    4.422960000000e+05 4.000000000000e+00
29 18  7 27  3 59 44.0 4.073744639754e-04-7.048583938740e-12 0.000000000000e+00
    0.000000000000e+00 1.075000000000e+01 4.156958868308e-09-2.594651648307e+00
    6.277114152908e-07 8.513075299561e-04 7.469207048416e-07 5.153657245636e+03
    4.463840000000e+05-5.029141902924e-08 1.539868344120e+00-6.332993507385e-08
    9.840355706085e-01 3.789062500000e+02 1.436424439746e+00-8.179983586293e-09
    9.286101089098e-12 1.000000000000e+00 2.011000000000e+03 0.000000000000e+00
    2.400000000000e+00 0.000000000000e+00-1.024454832077e-08 0.000000000000e+00
    4.463460000000e+05 4.000000000000e+00
18 18  7 27  5 59 44.0 3.850460052490e-05 4.547473508865e-12 0.000000000000e+00
    1.000000000000e+00-1.370625000000e+02 4.488044087908e-09 1.580681666559e+00
   -7.303431630135e-06 1.485182635952e-02 5.755573511124e-06 5.153648420334e+03
    4.535840000000e+05-1.192092895508e-07 2.482863839988e+00-3.203749656677e-07
    9.505429521008e-01 2.665312500000e+02 1.327634911289e+00-8.275344701323e-09
   -2.035799084918e-10 1.000000000000e+00 2.011000000000e+03 0.000000000000e+00
    2.400000000000e+00 0.000000000000e+00-6.519258022308e-09 1.000000000000e+00
    4.464060000000e+05 4.000000000000e+00
29 18  7 27  5 59 44.0 4.073237068951e-04-7.048583938740e-12 0.000000000000e+00
    2.000000000000e+00 1.303125000000e+01 4.228747572882e-09-1.545110213665e+00
    6.146728992462e-07 8.513358188793e-04 9.145587682724e-07 5.153656303406e+03
    4.535840000000e+05 1.303851604462e-08 1.539809483611e+00-2.235174179077e-08
    9.840353233753e-01 3.744375000000e+02 1.437071485487e+00-8.219628094789e-09
   -2.821546100149e-11 1.000000000000e+00 2.011000000000e+03 0.000000000000e+00
    2.400000000000e+00 0.000000000000e+00-1.024454832077e-08 2.000000000000e+00
    4.464060000000e+05 4.000000000000e+00
23 18  7 27  5 59 44.0-2.138428390026e-04 5.684341886081e-13 0.000000000000e+00
    8.000000000000e+00 1.078125000000e+01 5.381652738867e-09 2.654418923591e+00
    4.637986421585e-07 1.264767732937e-02 4.936009645462e-06 5.153751426697e+03
    4.535840000000e+05-3.166496753693e-08-1.678185014639e+00-2.030283212662e-07
    9.430108711365e-01 2.780000000000e+02-2.339262892855e+00-8.160697068646e-09
    2.417957860507e-10 1.000000000000e+00 2.011000000000e+03 0.000000000000e+00
    2.400000000000e+00 0.000000000000e+00-2.002343535423e-08 8.000000000000e+00
    4.464060000000e+05 4.000000000000e+00
19 18  7 27  5 59 44.0-4.169866442680e-04 3.183231456205e-12 0.000000000000e+00
    1.000000000000e+01 7.250000000000e+00 4.188388748917e-09 5.256837449752e-01
    5.122274160385e-07 9.858666104265e-03 1.605600118637e-06 5.153717023849e+03
    4.535840000000e+05-2.067536115646e-07 1.576008731707e+00-5.215406417847e-08
    9.802930414143e-01 3.634062500000e+02 1.244437945275e+00-8.261415549690e-09
   -9.928985010651e-11 1.000000000000e+00 2.011000000000e+03 0.000000000000e+00
    2.400000000000e+00 0.000000000000e+00-1.536682248116e-08 1.000000000000e+01
    4.464060000000e+05 4.000000000000e+00
20 18  7 27  5 59 44.0 5.131079815328e-04 6.821210263297e-13 0.000000000000e+00
    7.000000000000e+00-3.084375000000e+01 4.946634618616e-09 1.716821902649e+00
   -1.594424247742e-06 4.045087727718e-03 1.096539199352e-05 5.153675830841e+03
    4.535840000000e+05 7.823109626770e-08-2.820985228329e+00 3.352761268616e-08
    9.291109769501e-01 1.510937500000e+02 2.062234047526e+00-8.046406593704e-09
    5.410939673071e-10 1.000000000000e+00 2.011000000000e+03 0.000000000000e+00
    2.400000000000e+00 0.000000000000e+00-8.381903171539e-09 7.000000000000e+00
    4.464060000000e+05 4.000000000000e+00
 1 18  7 27  6  0  0.0-6.993999704719e-05-3.979039320257e-12 0.000000000000e+00
    1.300000000000e+01-1.298125000000e+02 4.016953036503e-09 1.826173311609e+00
   -6.748363375664e-06 8.027523523197e-03 6.703659892082e-06 5.153674787521e+03
    4.536000000000e+05-1.136213541031e-07 2.531328152298e+00-1.862645149231e-08
    9.721755942614e-01 2.575000000000e+02 6.692824538435e-01-7.960331579762e-09
   -2.396528396456e-10 1.000000000000e+00 2.011000000000e+03 0.000000000000e+00
    2.400000000000e+00 0.000000000000e+00 5.587935447693e-09 1.300000000000e+01
    4.464060000000e+05 4.000000000000e+00
